{
  "type": "FeatureCollection",
  "features": [
    {
      "type": "Feature",
      "properties": {
        "norad_id": 64751,
        "name": "PROGRESS-MS 31",
        "group": "stations",
        "lat": -42.48531614191553,
        "lon": -44.20721809074723,
        "alt_km": 420.39856158560997,
        "timestamp": "2025-12-23T11:34:46.979271+00:00",
        "meta_object_name": "PROGRESS-MS 31",
        "meta_object_id": "2025-146A",
        "meta_epoch": "2025-12-22T15:58:44.561856",
        "meta_mean_motion": 15.49732869,
        "meta_eccentricity": 0.00031542,
        "meta_inclination": 51.6326,
        "meta_ra_of_asc_node": 93.3232,
        "meta_arg_of_pericenter": 286.8846,
        "meta_mean_anomaly": 73.1797,
        "meta_ephemeris_type": 0,
        "meta_classification_type": "U",
        "meta_norad_cat_id": 64751,
        "meta_element_set_no": 999,
        "meta_rev_at_epoch": 675,
        "meta_bstar": 0.00022188304,
        "meta_mean_motion_dot": 0.0001211,
        "meta_mean_motion_ddot": 0,
        "tle_line1": "1 64751U 25146A   25356.66579354  .00012110  00000+0  22188-3 0  9995",
        "tle_line2": "2 64751  51.6326  93.3232 0003154 286.8846  73.1797 15.49732869  6751"
      },
      "geometry": {
        "type": "Point",
        "coordinates": [
          -44.20721809074723,
          -42.48531614191553
        ]
      }
    },
    {
      "type": "Feature",
      "properties": {
        "norad_id": 64786,
        "name": "TIANZHOU-9",
        "group": "stations",
        "lat": 29.29249299566168,
        "lon": -9.094940459915195,
        "alt_km": 382.7505536648541,
        "timestamp": "2025-12-23T11:34:46.979280+00:00",
        "meta_object_name": "TIANZHOU-9",
        "meta_object_id": "2025-149A",
        "meta_epoch": "2025-12-22T20:00:27.776448",
        "meta_mean_motion": 15.59577421,
        "meta_eccentricity": 0.00078985,
        "meta_inclination": 41.4686,
        "meta_ra_of_asc_node": 315.409,
        "meta_arg_of_pericenter": 119.6774,
        "meta_mean_anomaly": 240.4851,
        "meta_ephemeris_type": 0,
        "meta_classification_type": "U",
        "meta_norad_cat_id": 64786,
        "meta_element_set_no": 999,
        "meta_rev_at_epoch": 25530,
        "meta_bstar": 0.00020454,
        "meta_mean_motion_dot": 0.00016458,
        "meta_mean_motion_ddot": 0,
        "tle_line1": "1 64786U 25149A   25356.83365482  .00016458  00000+0  20454-3 0  9993",
        "tle_line2": "2 64786  41.4686 315.4090 0007898 119.6774 240.4851 15.59577421255306"
      },
      "geometry": {
        "type": "Point",
        "coordinates": [
          -9.094940459915195,
          29.29249299566168
        ]
      }
    },
    {
      "type": "Feature",
      "properties": {
        "norad_id": 65077,
        "name": "CREW DRAGON 11",
        "group": "stations",
        "lat": -42.485316872985315,
        "lon": -44.20721654433259,
        "alt_km": 420.39856157579015,
        "timestamp": "2025-12-23T11:34:46.979292+00:00",
        "meta_object_name": "CREW DRAGON 11",
        "meta_object_id": "2025-166A",
        "meta_epoch": "2025-12-22T15:58:44.561856",
        "meta_mean_motion": 15.49732869,
        "meta_eccentricity": 0.00031542,
        "meta_inclination": 51.6326,
        "meta_ra_of_asc_node": 93.3232,
        "meta_arg_of_pericenter": 286.8846,
        "meta_mean_anomaly": 73.1797,
        "meta_ephemeris_type": 0,
        "meta_classification_type": "U",
        "meta_norad_cat_id": 65077,
        "meta_element_set_no": 999,
        "meta_rev_at_epoch": 214,
        "meta_bstar": 0.00022188304,
        "meta_mean_motion_dot": 0.0001211,
        "meta_mean_motion_ddot": 0,
        "tle_line1": "1 65077U 25166A   25356.66579354  .00012110  00000+0  22188-3 0  9999",
        "tle_line2": "2 65077  51.6326  93.3232 0003154 286.8846  73.1797 15.49732869  2142"
      },
      "geometry": {
        "type": "Point",
        "coordinates": [
          -44.20721654433259,
          -42.485316872985315
        ]
      }
    },
    {
      "type": "Feature",
      "properties": {
        "norad_id": 65304,
        "name": "DRAGON CRS-33",
        "group": "stations",
        "lat": -42.485317186300875,
        "lon": -44.20721588158362,
        "alt_km": 420.398561571581,
        "timestamp": "2025-12-23T11:34:46.979301+00:00",
        "meta_object_name": "DRAGON CRS-33",
        "meta_object_id": "2025-186A",
        "meta_epoch": "2025-12-22T15:58:44.561856",
        "meta_mean_motion": 15.49732869,
        "meta_eccentricity": 0.00031542,
        "meta_inclination": 51.6326,
        "meta_ra_of_asc_node": 93.3232,
        "meta_arg_of_pericenter": 286.8846,
        "meta_mean_anomaly": 73.1797,
        "meta_ephemeris_type": 0,
        "meta_classification_type": "U",
        "meta_norad_cat_id": 65304,
        "meta_element_set_no": 999,
        "meta_rev_at_epoch": 11,
        "meta_bstar": 0.00022188304,
        "meta_mean_motion_dot": 0.0001211,
        "meta_mean_motion_ddot": 0,
        "tle_line1": "1 65304U 25186A   25356.66579354  .00012110  00000+0  22188-3 0  9994",
        "tle_line2": "2 65304  51.6326  93.3232 0003154 286.8846  73.1797 15.49732869   110"
      },
      "geometry": {
        "type": "Point",
        "coordinates": [
          -44.20721588158362,
          -42.485317186300875
        ]
      }
    },
    {
      "type": "Feature",
      "properties": {
        "norad_id": 65586,
        "name": "PROGRESS-MS 32",
        "group": "stations",
        "lat": -42.48531749961675,
        "lon": -44.207215218833895,
        "alt_km": 420.39856156737005,
        "timestamp": "2025-12-23T11:34:46.979310+00:00",
        "meta_object_name": "PROGRESS-MS 32",
        "meta_object_id": "2025-204A",
        "meta_epoch": "2025-12-22T15:58:44.561856",
        "meta_mean_motion": 15.49732869,
        "meta_eccentricity": 0.00031542,
        "meta_inclination": 51.6326,
        "meta_ra_of_asc_node": 93.3232,
        "meta_arg_of_pericenter": 286.8846,
        "meta_mean_anomaly": 73.1797,
        "meta_ephemeris_type": 0,
        "meta_classification_type": "U",
        "meta_norad_cat_id": 65586,
        "meta_element_set_no": 999,
        "meta_rev_at_epoch": 27,
        "meta_bstar": 0.00022188304,
        "meta_mean_motion_dot": 0.0001211,
        "meta_mean_motion_ddot": 0,
        "tle_line1": "1 65586U 25204A   25356.66579354  .00012110  00000+0  22188-3 0  9997",
        "tle_line2": "2 65586  51.6326  93.3232 0003154 286.8846  73.1797 15.49732869   279"
      },
      "geometry": {
        "type": "Point",
        "coordinates": [
          -44.207215218833895,
          -42.48531749961675
        ]
      }
    },
    {
      "type": "Feature",
      "properties": {
        "norad_id": 65616,
        "name": "CYGNUS NG-23",
        "group": "stations",
        "lat": -42.48531781293228,
        "lon": -44.20721455608488,
        "alt_km": 420.3985615631609,
        "timestamp": "2025-12-23T11:34:46.979319+00:00",
        "meta_object_name": "CYGNUS NG-23",
        "meta_object_id": "2025-208A",
        "meta_epoch": "2025-12-22T15:58:44.561856",
        "meta_mean_motion": 15.49732869,
        "meta_eccentricity": 0.00031542,
        "meta_inclination": 51.6326,
        "meta_ra_of_asc_node": 93.3232,
        "meta_arg_of_pericenter": 286.8846,
        "meta_mean_anomaly": 73.1797,
        "meta_ephemeris_type": 0,
        "meta_classification_type": "U",
        "meta_norad_cat_id": 65616,
        "meta_element_set_no": 999,
        "meta_rev_at_epoch": 22,
        "meta_bstar": 0.00022188304,
        "meta_mean_motion_dot": 0.0001211,
        "meta_mean_motion_ddot": 0,
        "tle_line1": "1 65616U 25208A   25356.66579354  .00012110  00000+0  22188-3 0  9995",
        "tle_line2": "2 65616  51.6326  93.3232 0003154 286.8846  73.1797 15.49732869   228"
      },
      "geometry": {
        "type": "Point",
        "coordinates": [
          -44.20721455608488,
          -42.48531781293228
        ]
      }
    },
    {
      "type": "Feature",
      "properties": {
        "norad_id": 65729,
        "name": "DRAGONFLY",
        "group": "stations",
        "lat": 47.35514390036253,
        "lon": 139.97344347924349,
        "alt_km": 336.5080931100638,
        "timestamp": "2025-12-23T11:34:46.979328+00:00",
        "meta_object_name": "DRAGONFLY",
        "meta_object_id": "1998-067XH",
        "meta_epoch": "2025-12-22T15:29:37.121856",
        "meta_mean_motion": 15.75220895,
        "meta_eccentricity": 0.00077856,
        "meta_inclination": 51.6244,
        "meta_ra_of_asc_node": 84.9151,
        "meta_arg_of_pericenter": 337.8608,
        "meta_mean_anomaly": 22.2054,
        "meta_ephemeris_type": 0,
        "meta_classification_type": "U",
        "meta_norad_cat_id": 65729,
        "meta_element_set_no": 999,
        "meta_rev_at_epoch": 1472,
        "meta_bstar": 0.0012171562,
        "meta_mean_motion_dot": 0.0019065,
        "meta_mean_motion_ddot": 0,
        "tle_line1": "1 65729U 98067XH  25356.64556854  .00190650  00000+0  12172-2 0  9998",
        "tle_line2": "2 65729  51.6244  84.9151 0007785 337.8608  22.2054 15.75220895 14726"
      },
      "geometry": {
        "type": "Point",
        "coordinates": [
          139.97344347924349,
          47.35514390036253
        ]
      }
    }
  ]
}